62609,BUZZER-1,2025,94.77,-1.0,+,97.42,Active,0,LEO,USA,France,Unknown,Unknown,Unknown,1 62609U 25009A   25309.18809610  .00003651  00000+0  17480-3 0  9998,2 62609  97.4151  26.4463 0008931  48.4661 311.7339 15.19551655 44656,15.19551655,0.0008931,LEO
62610,EDISON-1,2025,94.44,-1.0,+,97.42,Active,0,LEO,USA,Denmark,Unknown,Unknown,Unknown,1 62610U 25009B   25309.23015441  .00014395  00000+0  58174-3 0  9999,2 62610  97.4225  27.8838 0006532  32.8146 327.3496 15.24832758 44740,15.24832758,0.0006532,LEO
62611,BALKAN-1,2025,94.68,-1.0,+,97.42,Active,0,LEO,USA,Bulgaria,Unknown,Unknown,Unknown,1 62611U 25009C   25309.19942760  .00008892  00000+0  40386-3 0  9999,2 62611  97.4152  26.5910 0008530  49.7341 310.4639 15.20974148 44660,15.20974148,0.000853,LEO
62612,GESAT GEN1,2025,94.49,-1.0,+,97.42,Active,0,LEO,USA,France,Unknown,Unknown,Unknown,1 62612U 25009D   25309.22514388  .00009427  00000+0  39256-3 0  9994,2 62612  97.4234  28.0552 0001491  72.5378 287.6023 15.23949648 44756,15.23949648,0.0001491,LEO
62613,FLOCK 4G-8,2025,94.5,-1.0,+,97.42,Active,0,LEO,USA,USA,Unknown,Unknown,Unknown,1 62613U 25009E   25309.18780517  .00011267  00000+0  46897-3 0  9993,2 62613  97.4226  27.7883 0005132  40.7830 319.3790 15.23903219 44733,15.23903219,0.0005132,LEO
62614,OBJECT F,2025,93.51,-1.0,+,97.41,Active,0,LEO,USA,To Be Determined,Unknown,Unknown,Unknown,1 62614U 25009F   25309.22887942  .00061289  00000+0  15256-2 0  9992,2 62614  97.4142  30.5351 0003813  26.4083 333.7356 15.40042827 44925,15.40042827,0.0003813,LEO
62615,OBJECT G,2025,94.63,-1.0,+,97.42,Active,0,LEO,USA,To Be Determined,Unknown,Unknown,Unknown,1 62615U 25009G   25309.19312589  .00008861  00000+0  39353-3 0  9991,2 62615  97.4169  26.9676 0007450  47.1227 313.0633 15.21755020 44682,15.2175502,0.000745,LEO
62616,INNOCUBE (TUSAT-31),2025,94.6,-1.0,+,97.41,Active,0,LEO,USA,Germany,Unknown,Unknown,Unknown,1 62616U 25009H   25309.21029391  .00009247  00000+0  40502-3 0  9998,2 62616  97.4132  26.9530 0007377  51.2421 308.9474 15.22215699 44693,15.22215699,0.0007377,LEO
62617,SCOT-1 (SCOT),2025,94.0,-1.0,+,97.41,Active,0,LEO,USA,Singapore,Unknown,Unknown,Unknown,1 62617U 25009J   25309.19003972  .00029161  00000+0  94642-3 0  9994,2 62617  97.4098  28.8611 0005400  42.9174 317.2488 15.31898954 44827,15.31898954,0.00054,LEO
62618,AE1D,2025,93.91,-1.0,+,97.42,Active,0,LEO,USA,Japan,Unknown,Unknown,Unknown,1 62618U 25009K   25309.18682122  .00033436  00000+0  10325-2 0  9999,2 62618  97.4171  29.4050 0004761  52.5899 307.5776 15.33465536 44846,15.33465536,0.0004761,LEO
62619,IRIS-F3,2025,94.62,-1.0,+,97.43,Active,0,LEO,USA,Taiwan,Unknown,Unknown,Unknown,1 62619U 25009L   25309.17501118  .00006046  00000+0  26892-3 0  9998,2 62619  97.4270  27.3564 0007537  43.0715 317.1110 15.21839759 44691,15.21839759,0.0007537,LEO
62620,OBJECT M,2025,93.91,-1.0,+,97.42,Active,0,LEO,USA,To Be Determined,Unknown,Unknown,Unknown,1 62620U 25009M   25309.18469257  .00033422  00000+0  10313-2 0  9996,2 62620  97.4175  29.4658 0004381  32.6247 327.5266 15.33491721 44842,15.33491721,0.0004381,LEO
62621,FLOCK 4G-13,2025,94.53,-1.0,+,97.42,Active,0,LEO,USA,USA,Unknown,Unknown,Unknown,1 62621U 25009N   25309.18810980  .00011463  00000+0  48581-3 0  9990,2 62621  97.4216  27.4447 0006733  47.4505 312.7300 15.23282625 44707,15.23282625,0.0006733,LEO
62622,FLOCK 4G-9,2025,94.55,-1.0,+,97.42,Active,0,LEO,USA,USA,Unknown,Unknown,Unknown,1 62622U 25009P   25309.17793598  .00011185  00000+0  47819-3 0  9999,2 62622  97.4180  27.3196 0005770  46.3512 313.8203 15.22995609 44700,15.22995609,0.000577,LEO
62623,OTTER,2025,94.48,-1.0,+,97.42,Active,0,LEO,USA,Germany,Unknown,Unknown,Unknown,1 62623U 25009Q   25309.20489807  .00012493  00000+0  51624-3 0  9991,2 62623  97.4246  27.8300 0005873  36.5048 323.6589 15.24119945 44737,15.24119945,0.0005873,LEO
62624,FLOCK 4G-7,2025,94.51,-1.0,+,97.42,Active,0,LEO,USA,USA,Unknown,Unknown,Unknown,1 62624U 25009R   25309.16485700  .00009741  00000+0  40986-3 0  9996,2 62624  97.4165  27.4156 0003641  55.0348 305.1230 15.23582463 44728,15.23582463,0.0003641,LEO
62625,FLOCK 4G-12,2025,94.51,-1.0,+,97.42,Active,0,LEO,USA,USA,Unknown,Unknown,Unknown,1 62625U 25009S   25309.21255758  .00009650  00000+0  40581-3 0  9991,2 62625  97.4237  27.7896 0004903  40.7969 319.3634 15.23599230 44731,15.2359923,0.0004903,LEO
62626,MBZ-SAT,2025,94.79,-1.0,+,97.42,Active,0,LEO,USA,UAE,Unknown,Unknown,Unknown,1 62626U 25009T   25309.18580155  .00000414  00000+0  22922-4 0  9999,2 62626  97.4197  27.0672 0004280  73.6880 286.4825 15.19092587 44696,15.19092587,0.000428,LEO
62627,RAY 1.0,2025,94.81,-1.0,+,97.42,Active,0,LEO,USA,USA,Unknown,Unknown,Unknown,1 62627U 25009U   25309.30882961  .00004608  00000+0  22461-3 0  9990,2 62627  97.4217  26.7055 0008569 348.5918  11.5121 15.18788562 44679,15.18788562,0.0008569,LEO
62628,ION SCV-016,2025,99.7,-1.0,+,97.47,Active,0,LEO,USA,Italy,Unknown,Unknown,Unknown,1 62628U 25009V   25309.14940161  .00024465  00000+0  54369-3 0  9995,2 62628  97.4696   7.8379 0614719  87.9830 279.1602 14.44396784 43165,14.44396784,0.0614719,LEO
62629,FLOCK 4G-11,2025,94.49,-1.0,+,97.42,Active,0,LEO,USA,USA,Unknown,Unknown,Unknown,1 62629U 25009W   25309.16545076  .00011005  00000+0  45802-3 0  9992,2 62629  97.4153  27.5342 0003575  52.0264 308.1296 15.23920841 44730,15.23920841,0.0003575,LEO
62630,ION SCV-014,2025,95.73,-1.0,+,97.51,Active,0,LEO,USA,Italy,Unknown,Unknown,Unknown,1 62630U 25009X   25309.21802096  .00002817  00000+0  20705-3 0  9994,2 62630  97.5123  23.9581 0005141 167.0433 193.0926 15.04199789 44303,15.04199789,0.0005141,LEO
62631,PELICAN-3009,2025,93.49,-1.0,+,97.42,Active,0,LEO,USA,USA,Unknown,Unknown,Unknown,1 62631U 25009Y   25309.18755821  .00092418  00000+0  22642-2 0  9991,2 62631  97.4198  32.8478 0010531 238.1812 121.8409 15.40342206 45073,15.40342206,0.0010531,LEO
62632,SIGI,2025,94.64,-1.0,+,97.42,Active,0,LEO,USA,Germany,Unknown,Unknown,Unknown,1 62632U 25009Z   25309.24928771  .00006334  00000+0  28392-3 0  9996,2 62632  97.4219  27.3668 0004063  39.4921 320.6611 15.21568391 44712,15.21568391,0.0004063,LEO
62633,FLOCK 4G-26,2025,94.49,-1.0,+,97.42,Active,0,LEO,USA,USA,Unknown,Unknown,Unknown,1 62633U 25009AA  25309.19433665  .00011766  00000+0  48907-3 0  9993,2 62633  97.4236  27.8263 0003896  35.4102 324.7394 15.23945953 44738,15.23945953,0.0003896,LEO
62634,FLOCK 4G-28,2025,94.11,-1.0,+,97.42,Active,0,LEO,USA,USA,Unknown,Unknown,Unknown,1 62634U 25009AB  25309.18803431  .00009831  00000+0  34022-3 0  9998,2 62634  97.4222  28.4248 0002772  53.5068 306.6428 15.30079327 44770,15.30079327,0.0002772,LEO
62635,GARAI-A,2025,94.68,-1.0,+,97.42,Active,0,LEO,USA,Spain,Unknown,Unknown,Unknown,1 62635U 25009AC  25309.28402662  .00008783  00000+0  40148-3 0  9992,2 62635  97.4214  27.7501 0003047  46.5294 313.6195 15.20786455 44747,15.20786455,0.0003047,LEO
62636,FLOCK 4G-20,2025,94.53,-1.0,+,97.42,Active,0,LEO,USA,USA,Unknown,Unknown,Unknown,1 62636U 25009AD  25309.15780913  .00010412  00000+0  44032-3 0  9995,2 62636  97.4151  27.3779 0003189  52.3873 307.7653 15.23395677 44722,15.23395677,0.0003189,LEO
62637,FLOCK 4G-24,2025,94.48,260.0,+,97.42,Active,1,LEO,USA,USA,Commercial,Communications,Falcon,1 62637U 25009AE  25309.20547346  .00011159  00000+0  46161-3 0  9997,2 62637  97.4242  27.9727 0003427  27.0842 333.0574 15.24123232 44746,15.24123232,0.0003427,LEO
62639,FLOCK 4G-3,2025,94.5,-1.0,+,97.42,Active,0,LEO,USA,USA,Unknown,Unknown,Unknown,1 62639U 25009AG  25308.65643364  .00011821  00000+0  49244-3 0  9995,2 62639  97.4241  27.3257 0003304  39.6783 320.4696 15.23870004 44645,15.23870004,0.0003304,LEO
