OBJECT_NAME,OBJECT_ID,EPOCH,MEAN_MOTION,ECCENTRICITY,INCLINATION,RA_OF_ASC_NODE,ARG_OF_PERICENTER,MEAN_ANOMALY,EPHEMERIS_TYPE,CLASSIFICATION_TYPE,NORAD_CAT_ID,ELEMENT_SET_NO,REV_AT_EPOCH,BSTAR,MEAN_MOTION_DOT,MEAN_MOTION_DDOT
BUZZER-1,2025-009A,2025-11-05T04:30:51.503040,15.19551655,.00089313,97.4151,26.4463,48.4661,311.7339,0,U,62609,999,4465,.1747965E-3,.3651E-4,0
EDISON-1,2025-009B,2025-11-05T05:31:25.341024,15.24832758,.00065321,97.4225,27.8838,32.8146,327.3496,0,U,62610,999,4474,.58173966E-3,.14395E-3,0
BALKAN-1,2025-009C,2025-11-05T04:47:10.544640,15.20974148,.000853,97.4152,26.5910,49.7341,310.4639,0,U,62611,999,4466,.40386468E-3,.8892E-4,0
GESAT GEN1,2025-009D,2025-11-05T05:24:12.431232,15.23949648,.0001491,97.4234,28.0552,72.5378,287.6023,0,U,62612,999,4475,.39256407E-3,.9427E-4,0
FLOCK 4G-8,2025-009E,2025-11-05T04:30:26.366688,15.23903219,.00051321,97.4226,27.7883,40.7830,319.3790,0,U,62613,999,4473,.46897379E-3,.11267E-3,0
2025-009F,2025-009F,2025-11-05T05:29:35.181888,15.40042827,.00038133,97.4142,30.5351,26.4083,333.7356,0,U,62614,999,4492,.15255512E-2,.61289E-3,0
2025-009G,2025-009G,2025-11-05T04:38:06.076896,15.21755020,.00074508,97.4169,26.9676,47.1227,313.0633,0,U,62615,999,4468,.39353356E-3,.8861E-4,0
INNOCUBE (TUSAT-31),2025-009H,2025-11-05T05:02:49.393824,15.22215699,.00073776,97.4132,26.9530,51.2421,308.9474,0,U,62616,999,4469,.40501719E-3,.9247E-4,0
SCOT-1 (SCOT),2025-009J,2025-11-05T04:33:39.431808,15.31898954,.00054001,97.4098,28.8611,42.9174,317.2488,0,U,62617,999,4482,.94642372E-3,.29161E-3,0
AE1D,2025-009K,2025-11-05T04:29:01.353408,15.33465536,.0004761,97.4171,29.4050,52.5899,307.5776,0,U,62618,999,4484,.10325054E-2,.33436E-3,0
IRIS-F3,2025-009L,2025-11-05T04:12:00.965952,15.21839759,.00075378,97.4270,27.3564,43.0715,317.1110,0,U,62619,999,4469,.26891719E-3,.6046E-4,0
2025-009M,2025-009M,2025-11-05T04:25:57.438048,15.33491721,.00043816,97.4175,29.4658,32.6247,327.5266,0,U,62620,999,4484,.10312592E-2,.33422E-3,0
FLOCK 4G-13,2025-009N,2025-11-05T04:30:52.686720,15.23282625,.00067336,97.4216,27.4447,47.4505,312.7300,0,U,62621,999,4470,.4858084E-3,.11463E-3,0
FLOCK 4G-9,2025-009P,2025-11-05T04:16:13.668672,15.22995609,.00057709,97.4180,27.3196,46.3512,313.8203,0,U,62622,999,4470,.47818806E-3,.11185E-3,0
OTTER,2025-009Q,2025-11-05T04:55:03.193248,15.24119945,.00058732,97.4246,27.8300,36.5048,323.6589,0,U,62623,999,4473,.51623521E-3,.12493E-3,0
FLOCK 4G-7,2025-009R,2025-11-05T03:57:23.644800,15.23582463,.00036417,97.4165,27.4156,55.0348,305.1230,0,U,62624,999,4472,.40985824E-3,.9741E-4,0
FLOCK 4G-12,2025-009S,2025-11-05T05:06:04.974912,15.23599230,.00049037,97.4237,27.7896,40.7969,319.3634,0,U,62625,999,4473,.40581319E-3,.965E-4,0
MBZ-SAT,2025-009T,2025-11-05T04:27:33.253920,15.19092587,.00042809,97.4197,27.0672,73.6880,286.4825,0,U,62626,999,4469,.22922349E-4,.414E-5,0
RAY 1.0,2025-009U,2025-11-05T07:24:42.878304,15.18788562,.0008569,97.4217,26.7055,348.5918,11.5121,0,U,62627,999,4467,.22461275E-3,.4608E-4,0
ION SCV-016,2025-009V,2025-11-05T03:35:08.299104,14.44396784,.06147197,97.4696,7.8379,87.9830,279.1602,0,U,62628,999,4316,.54368914E-3,.24465E-3,0
FLOCK 4G-11,2025-009W,2025-11-05T03:58:14.945664,15.23920841,.00035756,97.4153,27.5342,52.0264,308.1296,0,U,62629,999,4473,.45802446E-3,.11005E-3,0
ION SCV-014,2025-009X,2025-11-05T05:13:57.010944,15.04199789,.00051419,97.5123,23.9581,167.0433,193.0926,0,U,62630,999,4430,.20704608E-3,.2817E-4,0
PELICAN-3009,2025-009Y,2025-11-05T04:30:05.029344,15.40342206,.00105316,97.4198,32.8478,238.1812,121.8409,0,U,62631,999,4507,.22641885E-2,.92418E-3,0
SIGI,2025-009Z,2025-11-05T05:58:58.458144,15.21568391,.00040636,97.4219,27.3668,39.4921,320.6611,0,U,62632,999,4471,.28391819E-3,.6334E-4,0
FLOCK 4G-26,2025-009AA,2025-11-05T04:39:50.686560,15.23945953,.00038968,97.4236,27.8263,35.4102,324.7394,0,U,62633,999,4473,.48906688E-3,.11766E-3,0
FLOCK 4G-28,2025-009AB,2025-11-05T04:30:46.164384,15.30079327,.00027727,97.4222,28.4248,53.5068,306.6428,0,U,62634,999,4477,.34021621E-3,.9831E-4,0
GARAI-A,2025-009AC,2025-11-05T06:48:59.899968,15.20786455,.00030474,97.4214,27.7501,46.5294,313.6195,0,U,62635,999,4474,.40147704E-3,.8783E-4,0
FLOCK 4G-20,2025-009AD,2025-11-05T03:47:14.708832,15.23395677,.00031892,97.4151,27.3779,52.3873,307.7653,0,U,62636,999,4472,.44031664E-3,.10412E-3,0
FLOCK 4G-24,2025-009AE,2025-11-05T04:55:52.906944,15.24123232,.00034272,97.4242,27.9727,27.0842,333.0574,0,U,62637,999,4474,.46161266E-3,.11159E-3,0
FLOCK 4G-3,2025-009AG,2025-11-04T15:45:15.866496,15.23870004,.00033044,97.4241,27.3257,39.6783,320.4696,0,U,62639,999,4464,.49243793E-3,.11821E-3,0
